start=new Date('2021-08-27T00:00:00.000Z').valueOf();
sats=[{"REV_AT_EPOCH":"4924","BSTAR":"0.00011225000000","TIME_SYSTEM":"UTC","OBJECT_ID":"2020-070BM","COUNTRY_CODE":"US","INCLINATION":"53.0569","OBJECT_NAME":"STARLINK-1755","PERIAPSIS":"546.222","CENTER_NAME":"EARTH","MEAN_MOTION":"15.06396249","RA_OF_ASC_NODE":"30.6835","OBJECT_TYPE":"PAYLOAD","DECAY_DATE":null,"MEAN_MOTION_DOT":"0.00001391","EPOCH":"2021-08-26T16:37:21.010656","MEAN_MOTION_DDOT":"0.0000000000000","ELEMENT_SET_NO":"999","NORAD_CAT_ID":"46591","ECCENTRICITY":"0.00014490","ARG_OF_PERICENTER":"110.1110","GP_ID":"183497742","SITE":"AFETR","MEAN_ANOMALY":"250.0035","FILE":"3103480","APOAPSIS":"548.229","EPHEMERIS_TYPE":"0","PERIOD":"95.592","TLE_LINE2":"2 46591  53.0569  30.6835 0001449 110.1110 250.0035 15.06396249 49242","CLASSIFICATION_TYPE":"U","REF_FRAME":"TEME","RCS_SIZE":"LARGE","LAUNCH_DATE":"2020-10-06","SEMIMAJOR_AXIS":"6925.360","MEAN_ELEMENT_THEORY":"SGP4","TLE_LINE1":"1 46591U 20070BM  21238.69260429  .00001391  00000-0  11225-3 0  9996"},{"PERIAPSIS":"545.849","CENTER_NAME":"EARTH","MEAN_MOTION":"15.06399552","RA_OF_ASC_NODE":"120.6574","REV_AT_EPOCH":"4746","BSTAR":"0.00008947200000","OBJECT_ID":"2020-073B","TIME_SYSTEM":"UTC","COUNTRY_CODE":"US","OBJECT_NAME":"STARLINK-1715","INCLINATION":"53.0543","PERIOD":"95.592","APOAPSIS":"548.581","EPHEMERIS_TYPE":"0","REF_FRAME":"TEME","RCS_SIZE":"LARGE","TLE_LINE2":"2 46671  53.0543 120.6574 0001972  72.4873 287.6331 15.06399552 47467","CLASSIFICATION_TYPE":"U","LAUNCH_DATE":"2020-10-18","SEMIMAJOR_AXIS":"6925.350","MEAN_ELEMENT_THEORY":"SGP4","TLE_LINE1":"1 46671U 20073B   21238.69810623  .00001051  00000-0  89472-4 0  9998","DECAY_DATE":null,"OBJECT_TYPE":"PAYLOAD","EPOCH":"2021-08-26T16:45:16.378272","MEAN_MOTION_DOT":"0.00001051","NORAD_CAT_ID":"46671","ELEMENT_SET_NO":"999","MEAN_MOTION_DDOT":"0.0000000000000","GP_ID":"183497999","MEAN_ANOMALY":"287.6331","SITE":"AFETR","FILE":"3103480","ECCENTRICITY":"0.00019720","ARG_OF_PERICENTER":"72.4873"},{"INCLINATION":"53.0538","OBJECT_NAME":"STARLINK-1716","COUNTRY_CODE":"US","TIME_SYSTEM":"UTC","OBJECT_ID":"2020-073C","REV_AT_EPOCH":"4744","BSTAR":"0.00008055000000","RA_OF_ASC_NODE":"118.4555","MEAN_MOTION":"15.06390357","PERIAPSIS":"545.753","CENTER_NAME":"EARTH","ECCENTRICITY":"0.00021510","ARG_OF_PERICENTER":"66.6202","GP_ID":"183474022","SITE":"AFETR","MEAN_ANOMALY":"293.5013","FILE":"3103463","ELEMENT_SET_NO":"999","MEAN_MOTION_DDOT":"0.0000000000000","NORAD_CAT_ID":"46672","MEAN_MOTION_DOT":"0.00000918","EPOCH":"2021-08-26T01:47:37.465152","OBJECT_TYPE":"PAYLOAD","DECAY_DATE":null,"TLE_LINE1":"1 46672U 20073C   21238.07473918  .00000918  00000-0  80550-4 0  9992","MEAN_ELEMENT_THEORY":"SGP4","LAUNCH_DATE":"2020-10-18","SEMIMAJOR_AXIS":"6925.378","CLASSIFICATION_TYPE":"U","TLE_LINE2":"2 46672  53.0538 118.4555 0002151  66.6202 293.5013 15.06390357 47442","REF_FRAME":"TEME","RCS_SIZE":"LARGE","APOAPSIS":"548.733","EPHEMERIS_TYPE":"0","PERIOD":"95.593"},{"RA_OF_ASC_NODE":"131.8083","PERIAPSIS":"546.039","CENTER_NAME":"EARTH","MEAN_MOTION":"15.06393774","COUNTRY_CODE":"US","INCLINATION":"53.0544","OBJECT_NAME":"STARLINK-1717","REV_AT_EPOCH":"4728","BSTAR":"0.00011620000000","TIME_SYSTEM":"UTC","OBJECT_ID":"2020-073D","LAUNCH_DATE":"2020-10-18","SEMIMAJOR_AXIS":"6925.368","MEAN_ELEMENT_THEORY":"SGP4","TLE_LINE1":"1 46673U 20073D   21238.44286311  .00001449  00000-0  11620-3 0  9994","APOAPSIS":"548.427","EPHEMERIS_TYPE":"0","PERIOD":"95.593","CLASSIFICATION_TYPE":"U","TLE_LINE2":"2 46673  53.0544 131.8083 0001724  79.0120 281.1062 15.06393774 47282","REF_FRAME":"TEME","RCS_SIZE":"LARGE","ELEMENT_SET_NO":"999","MEAN_MOTION_DDOT":"0.0000000000000","NORAD_CAT_ID":"46673","ECCENTRICITY":"0.00017240","ARG_OF_PERICENTER":"79.0120","SITE":"AFETR","GP_ID":"183474274","MEAN_ANOMALY":"281.1062","FILE":"3103463","OBJECT_TYPE":"PAYLOAD","DECAY_DATE":null,"MEAN_MOTION_DOT":"0.00001449","EPOCH":"2021-08-26T10:37:43.372704"},{"RA_OF_ASC_NODE":"115.6610","MEAN_MOTION":"15.06398839","CENTER_NAME":"EARTH","PERIAPSIS":"545.862","OBJECT_NAME":"STARLINK-1718","INCLINATION":"53.0543","COUNTRY_CODE":"US","OBJECT_ID":"2020-073E","TIME_SYSTEM":"UTC","BSTAR":"-0.00004820600000","REV_AT_EPOCH":"4753","MEAN_ELEMENT_THEORY":"SGP4","TLE_LINE1":"1 46674U 20073E   21238.69766552 -.00001000  00000-0 -48206-4 0  9998","SEMIMAJOR_AXIS":"6925.352","LAUNCH_DATE":"2020-10-18","RCS_SIZE":"LARGE","REF_FRAME":"TEME","CLASSIFICATION_TYPE":"U","TLE_LINE2":"2 46674  53.0543 115.6610 0001957  67.5938 292.5258 15.06398839 47533","PERIOD":"95.592","EPHEMERIS_TYPE":"0","APOAPSIS":"548.572","FILE":"3103480","SITE":"AFETR","GP_ID":"183497248","MEAN_ANOMALY":"292.5258","ARG_OF_PERICENTER":"67.5938","ECCENTRICITY":"0.00019570","NORAD_CAT_ID":"46674","ELEMENT_SET_NO":"999","MEAN_MOTION_DDOT":"0.0000000000000","EPOCH":"2021-08-26T16:44:38.300928","MEAN_MOTION_DOT":"-0.00001000","DECAY_DATE":null,"OBJECT_TYPE":"PAYLOAD"},{"CENTER_NAME":"EARTH","PERIAPSIS":"545.842","MEAN_MOTION":"15.06398082","RA_OF_ASC_NODE":"117.1686","BSTAR":"-0.00001981700000","REV_AT_EPOCH":"4748","OBJECT_ID":"2020-073F","TIME_SYSTEM":"UTC","COUNTRY_CODE":"US","OBJECT_NAME":"STARLINK-1720","INCLINATION":"53.0548","PERIOD":"95.592","EPHEMERIS_TYPE":"0","APOAPSIS":"548.597","RCS_SIZE":"LARGE","REF_FRAME":"TEME","CLASSIFICATION_TYPE":"U","TLE_LINE2":"2 46675  53.0548 117.1686 0001989  72.3990 287.7216 15.06398082 47480","SEMIMAJOR_AXIS":"6925.354","LAUNCH_DATE":"2020-10-18","TLE_LINE1":"1 46675U 20073F   21238.36224358 -.00000577  00000-0 -19817-4 0  9990","MEAN_ELEMENT_THEORY":"SGP4","DECAY_DATE":null,"OBJECT_TYPE":"PAYLOAD","EPOCH":"2021-08-26T08:41:37.845312","MEAN_MOTION_DOT":"-0.00000577","NORAD_CAT_ID":"46675","ELEMENT_SET_NO":"999","MEAN_MOTION_DDOT":"0.0000000000000","FILE":"3103463","GP_ID":"183473772","SITE":"AFETR","MEAN_ANOMALY":"287.7216","ARG_OF_PERICENTER":"72.3990","ECCENTRICITY":"0.00019890"},{"MEAN_MOTION_DOT":"0.00094104","EPOCH":"2021-08-26T18:38:07.191168","OBJECT_TYPE":"PAYLOAD","DECAY_DATE":null,"ECCENTRICITY":"0.00021980","ARG_OF_PERICENTER":"332.9588","GP_ID":"183498250","SITE":"AFETR","MEAN_ANOMALY":"27.1312","FILE":"3103480","MEAN_MOTION_DDOT":"0.0000000000000","ELEMENT_SET_NO":"999","NORAD_CAT_ID":"46676","CLASSIFICATION_TYPE":"U","TLE_LINE2":"2 46676  53.0546  71.7120 0002198 332.9588  27.1312 15.65024133 48165","REF_FRAME":"TEME","RCS_SIZE":"LARGE","APOAPSIS":"374.655","EPHEMERIS_TYPE":"0","PERIOD":"92.011","MEAN_ELEMENT_THEORY":"SGP4","TLE_LINE1":"1 46676U 20073G   21238.77647212  .00094104  00000-0  93433-3 0  9996","LAUNCH_DATE":"2020-10-18","SEMIMAJOR_AXIS":"6751.306","TIME_SYSTEM":"UTC","OBJECT_ID":"2020-073G","REV_AT_EPOCH":"4816","BSTAR":"0.00093433000000","INCLINATION":"53.0546","OBJECT_NAME":"STARLINK-1731","COUNTRY_CODE":"US","MEAN_MOTION":"15.65024133","PERIAPSIS":"371.687","CENTER_NAME":"EARTH","RA_OF_ASC_NODE":"71.7120"},{"SEMIMAJOR_AXIS":"6925.355","LAUNCH_DATE":"2020-10-18","MEAN_ELEMENT_THEORY":"SGP4","TLE_LINE1":"1 46677U 20073H   21238.35855720 -.00000518  00000-0 -15846-4 0  9997","EPHEMERIS_TYPE":"0","APOAPSIS":"548.700","PERIOD":"95.592","CLASSIFICATION_TYPE":"U","TLE_LINE2":"2 46677  53.0563 117.1896 0002137  84.9883 275.1350 15.06397907 47483","RCS_SIZE":"LARGE","REF_FRAME":"TEME","ELEMENT_SET_NO":"999","MEAN_MOTION_DDOT":"0.0000000000000","NORAD_CAT_ID":"46677","ARG_OF_PERICENTER":"84.9883","ECCENTRICITY":"0.00021370","FILE":"3103463","GP_ID":"183474774","SITE":"AFETR","MEAN_ANOMALY":"275.1350","OBJECT_TYPE":"PAYLOAD","DECAY_DATE":null,"MEAN_MOTION_DOT":"-0.00000518","EPOCH":"2021-08-26T08:36:19.342080","RA_OF_ASC_NODE":"117.1896","CENTER_NAME":"EARTH","PERIAPSIS":"545.740","MEAN_MOTION":"15.06397907","COUNTRY_CODE":"US","INCLINATION":"53.0563","OBJECT_NAME":"STARLINK-1766","BSTAR":"-0.00001584600000","REV_AT_EPOCH":"4748","TIME_SYSTEM":"UTC","OBJECT_ID":"2020-073H"},{"RA_OF_ASC_NODE":"98.6281","MEAN_MOTION":"15.06396609","PERIAPSIS":"543.469","CENTER_NAME":"EARTH","OBJECT_NAME":"STARLINK-1773","INCLINATION":"53.0545","COUNTRY_CODE":"US","OBJECT_ID":"2020-073K","TIME_SYSTEM":"UTC","REV_AT_EPOCH":"4771","BSTAR":"-0.00003542600000","MEAN_ELEMENT_THEORY":"SGP4","TLE_LINE1":"1 46679U 20073K   21238.03235343 -.00000811  00000-0 -35426-4 0  9999","LAUNCH_DATE":"2020-10-18","SEMIMAJOR_AXIS":"6925.359","REF_FRAME":"TEME","RCS_SIZE":"LARGE","CLASSIFICATION_TYPE":"U","TLE_LINE2":"2 46679  53.0545  98.6281 0005422  38.0959 322.0412 15.06396609 47715","PERIOD":"95.592","APOAPSIS":"550.979","EPHEMERIS_TYPE":"0","MEAN_ANOMALY":"322.0412","GP_ID":"183474521","SITE":"AFETR","FILE":"3103463","ECCENTRICITY":"0.00054220","ARG_OF_PERICENTER":"38.0959","NORAD_CAT_ID":"46679","ELEMENT_SET_NO":"999","MEAN_MOTION_DDOT":"0.0000000000000","EPOCH":"2021-08-26T00:46:35.336352","MEAN_MOTION_DOT":"-0.00000811","DECAY_DATE":null,"OBJECT_TYPE":"PAYLOAD"},{"ARG_OF_PERICENTER":"77.2211","ECCENTRICITY":"0.00021700","FILE":"3103463","MEAN_ANOMALY":"282.9020","GP_ID":"183473273","SITE":"AFETR","MEAN_MOTION_DDOT":"0.0000000000000","ELEMENT_SET_NO":"999","NORAD_CAT_ID":"46680","MEAN_MOTION_DOT":"0.00001162","EPOCH":"2021-08-26T10:23:07.385568","OBJECT_TYPE":"PAYLOAD","DECAY_DATE":null,"TLE_LINE1":"1 46680U 20073L   21238.43272437  .00001162  00000-0  96916-4 0  9999","MEAN_ELEMENT_THEORY":"SGP4","SEMIMAJOR_AXIS":"6925.329","LAUNCH_DATE":"2020-10-18","TLE_LINE2":"2 46680  53.0538 131.8420 0002170  77.2211 282.9020 15.06406466 47281","CLASSIFICATION_TYPE":"U","RCS_SIZE":"LARGE","REF_FRAME":"TEME","EPHEMERIS_TYPE":"0","APOAPSIS":"548.697","PERIOD":"95.592","INCLINATION":"53.0538","OBJECT_NAME":"STARLINK-1774","COUNTRY_CODE":"US","TIME_SYSTEM":"UTC","OBJECT_ID":"2020-073L","BSTAR":"0.00009691600000","REV_AT_EPOCH":"4728","RA_OF_ASC_NODE":"131.8420","MEAN_MOTION":"15.06406466","CENTER_NAME":"EARTH","PERIAPSIS":"545.691"}];
